{
    "links": {
        "self": "http://www.neowsapp.com/rest/v1/neo/3182826?api_key=iIulBulltgU6a56xZRHN4H3l9WmuAYTsLGpBGhQ2"
    },
    "id": "3182826",
    "neo_reference_id": "3182826",
    "name": "(2004 KN10)",
    "designation": "2004 KN10",
    "nasa_jpl_url": "http://ssd.jpl.nasa.gov/sbdb.cgi?sstr=3182826",
    "absolute_magnitude_h": 23.6,
    "estimated_diameter": {
        "kilometers": {
            "estimated_diameter_min": 0.0506471459,
            "estimated_diameter_max": 0.1132504611
        },
        "meters": {
            "estimated_diameter_min": 50.6471458835,
            "estimated_diameter_max": 113.2504610618
        },
        "miles": {
            "estimated_diameter_min": 0.0314706677,
            "estimated_diameter_max": 0.0703705522
        },
        "feet": {
            "estimated_diameter_min": 166.1651821003,
            "estimated_diameter_max": 371.5566426699
        }
    },
    "is_potentially_hazardous_asteroid": false,
    "close_approach_data": [
        {
            "close_approach_date": "2004-06-05",
            "close_approach_date_full": "2004-Jun-05 21:10",
            "epoch_date_close_approach": 1086469800000,
            "relative_velocity": {
                "kilometers_per_second": "6.2921968126",
                "kilometers_per_hour": "22651.9085252724",
                "miles_per_hour": "14075.0150500505"
            },
            "miss_distance": {
                "astronomical": "0.1166648588",
                "lunar": "45.3826300732",
                "kilometers": "17452814.380330756",
                "miles": "10844675.9816301928"
            },
            "orbiting_body": "Earth"
        }
    ],
    "orbital_data": {
        "orbit_id": "12",
        "orbit_determination_date": "2017-04-06 09:12:45",
        "first_observation_date": "2004-05-21",
        "last_observation_date": "2004-06-14",
        "data_arc_in_days": 24,
        "observations_used": 45,
        "orbit_uncertainty": "7",
        "minimum_orbit_intersection": ".100062",
        "jupiter_tisserand_invariant": "3.671",
        "epoch_osculation": "2459000.5",
        "eccentricity": ".4541270138610993",
        "semi_major_axis": "2.02517680809656",
        "inclination": "7.636785704812038",
        "ascending_node_longitude": "234.7469789389578",
        "orbital_period": "1052.671451020198",
        "perihelion_distance": "1.105489311694916",
        "perihelion_argument": "20.66523080927679",
        "aphelion_distance": "2.944864304498203",
        "perihelion_time": "2459480.632250216103",
        "mean_anomaly": "195.8009900332326",
        "mean_motion": ".3419870460542132",
        "equinox": "J2000",
        "orbit_class": {
            "orbit_class_type": "AMO",
            "orbit_class_description": "Near-Earth asteroid orbits similar to that of 1221 Amor",
            "orbit_class_range": "1.017 AU < q (perihelion) < 1.3 AU"
        }
    },
    "is_sentry_object": false
}